[{"OBJECT_NAME":"DELTA 2 R/B","OBJECT_ID":"1999-041E","EPOCH":"2026-03-05T18:15:11.238336","MEAN_MOTION":14.11825663,"ECCENTRICITY":0.0502363,"INCLINATION":51.764,"RA_OF_ASC_NODE":316.9739,"ARG_OF_PERICENTER":336.8392,"MEAN_ANOMALY":21.059,"EPHEMERIS_TYPE":0,"CLASSIFICATION_TYPE":"U","NORAD_CAT_ID":25876,"ELEMENT_SET_NO":999,"REV_AT_EPOCH":36247,"BSTAR":0.00031258,"MEAN_MOTION_DOT":1.708e-5,"MEAN_MOTION_DDOT":0},{"OBJECT_NAME":"HELIOS 1B","OBJECT_ID":"1999-064A","EPOCH":"2026-03-05T16:16:44.897088","MEAN_MOTION":14.87680091,"ECCENTRICITY":0.0002507,"INCLINATION":98.1698,"RA_OF_ASC_NODE":326.8039,"ARG_OF_PERICENTER":80.2123,"MEAN_ANOMALY":279.9376,"EPHEMERIS_TYPE":0,"CLASSIFICATION_TYPE":"U","NORAD_CAT_ID":25977,"ELEMENT_SET_NO":999,"REV_AT_EPOCH":68466,"BSTAR":0.00034317,"MEAN_MOTION_DOT":3.067e-5,"MEAN_MOTION_DDOT":0},{"OBJECT_NAME":"TERRA","OBJECT_ID":"1999-068A","EPOCH":"2026-03-05T19:29:45.144384","MEAN_MOTION":14.61010123,"ECCENTRICITY":0.0002463,"INCLINATION":97.9601,"RA_OF_ASC_NODE":118.395,"ARG_OF_PERICENTER":160.7752,"MEAN_ANOMALY":264.6855,"EPHEMERIS_TYPE":0,"CLASSIFICATION_TYPE":"U","NORAD_CAT_ID":25994,"ELEMENT_SET_NO":999,"REV_AT_EPOCH":39451,"BSTAR":0.0001382,"MEAN_MOTION_DOT":6.33e-6,"MEAN_MOTION_DDOT":0},{"OBJECT_NAME":"SL-16 R/B","OBJECT_ID":"2000-006B","EPOCH":"2026-03-05T13:28:28.315776","MEAN_MOTION":14.15825328,"ECCENTRICITY":0.0017079,"INCLINATION":71.0012,"RA_OF_ASC_NODE":106.5183,"ARG_OF_PERICENTER":195.9469,"MEAN_ANOMALY":164.1119,"EPHEMERIS_TYPE":0,"CLASSIFICATION_TYPE":"U","NORAD_CAT_ID":26070,"ELEMENT_SET_NO":999,"REV_AT_EPOCH":34797,"BSTAR":8.907e-5,"MEAN_MOTION_DOT":1.28e-6,"MEAN_MOTION_DDOT":0},{"OBJECT_NAME":"TITAN 4B R/B","OBJECT_ID":"2000-047B","EPOCH":"2026-03-05T20:29:05.278848","MEAN_MOTION":15.09517129,"ECCENTRICITY":0.0038228,"INCLINATION":67.9892,"RA_OF_ASC_NODE":51.2965,"ARG_OF_PERICENTER":39.9288,"MEAN_ANOMALY":320.4661,"EPHEMERIS_TYPE":0,"CLASSIFICATION_TYPE":"U","NORAD_CAT_ID":26474,"ELEMENT_SET_NO":999,"REV_AT_EPOCH":39233,"BSTAR":0.00036392,"MEAN_MOTION_DOT":5.818e-5,"MEAN_MOTION_DDOT":0},{"OBJECT_NAME":"ENVISAT","OBJECT_ID":"2002-009A","EPOCH":"2026-03-05T20:19:51.636288","MEAN_MOTION":14.3903532,"ECCENTRICITY":0.0001332,"INCLINATION":98.3722,"RA_OF_ASC_NODE":18.5361,"ARG_OF_PERICENTER":84.3208,"MEAN_ANOMALY":283.9722,"EPHEMERIS_TYPE":0,"CLASSIFICATION_TYPE":"U","NORAD_CAT_ID":27386,"ELEMENT_SET_NO":999,"REV_AT_EPOCH":25862,"BSTAR":7.7814e-5,"MEAN_MOTION_DOT":1.97e-6,"MEAN_MOTION_DDOT":0},{"OBJECT_NAME":"IDEFIX & ARIANE 42P R/B","OBJECT_ID":"2002-021B","EPOCH":"2026-03-05T17:17:03.676416","MEAN_MOTION":14.31022919,"ECCENTRICITY":0.0011343,"INCLINATION":98.5866,"RA_OF_ASC_NODE":3.374,"ARG_OF_PERICENTER":194.0725,"MEAN_ANOMALY":166.0144,"EPHEMERIS_TYPE":0,"CLASSIFICATION_TYPE":"U","NORAD_CAT_ID":27422,"ELEMENT_SET_NO":999,"REV_AT_EPOCH":24345,"BSTAR":0.00017513,"MEAN_MOTION_DOT":4.17e-6,"MEAN_MOTION_DDOT":0},{"OBJECT_NAME":"AQUA","OBJECT_ID":"2002-022A","EPOCH":"2026-03-05T20:15:41.203296","MEAN_MOTION":14.61966367,"ECCENTRICITY":6.04e-5,"INCLINATION":98.4169,"RA_OF_ASC_NODE":32.1392,"ARG_OF_PERICENTER":63.3883,"MEAN_ANOMALY":317.6242,"EPHEMERIS_TYPE":0,"CLASSIFICATION_TYPE":"U","NORAD_CAT_ID":27424,"ELEMENT_SET_NO":999,"REV_AT_EPOCH":26817,"BSTAR":0.0003191,"MEAN_MOTION_DOT":1.549e-5,"MEAN_MOTION_DDOT":0},{"OBJECT_NAME":"CZ-4B R/B","OBJECT_ID":"2002-024C","EPOCH":"2026-03-05T18:25:14.604960","MEAN_MOTION":14.14546933,"ECCENTRICITY":0.0050668,"INCLINATION":98.8846,"RA_OF_ASC_NODE":118.1938,"ARG_OF_PERICENTER":35.2596,"MEAN_ANOMALY":74.8182,"EPHEMERIS_TYPE":0,"CLASSIFICATION_TYPE":"U","NORAD_CAT_ID":27432,"ELEMENT_SET_NO":999,"REV_AT_EPOCH":22868,"BSTAR":6.0568e-5,"MEAN_MOTION_DOT":7.3e-7,"MEAN_MOTION_DDOT":0},{"OBJECT_NAME":"MIDORI II (ADEOS-II)","OBJECT_ID":"2002-056A","EPOCH":"2026-03-05T19:31:20.484192","MEAN_MOTION":14.29281648,"ECCENTRICITY":0.000174,"INCLINATION":98.7764,"RA_OF_ASC_NODE":23.2644,"ARG_OF_PERICENTER":48.1718,"MEAN_ANOMALY":311.9612,"EPHEMERIS_TYPE":0,"CLASSIFICATION_TYPE":"U","NORAD_CAT_ID":27597,"ELEMENT_SET_NO":999,"REV_AT_EPOCH":20974,"BSTAR":0.00019193,"MEAN_MOTION_DOT":4.43e-6,"MEAN_MOTION_DDOT":0},{"OBJECT_NAME":"H-2A R/B","OBJECT_ID":"2002-056E","EPOCH":"2026-03-05T20:49:38.846208","MEAN_MOTION":14.33757912,"ECCENTRICITY":0.007027,"INCLINATION":98.3197,"RA_OF_ASC_NODE":25.379,"ARG_OF_PERICENTER":172.0112,"MEAN_ANOMALY":242.7391,"EPHEMERIS_TYPE":0,"CLASSIFICATION_TYPE":"U","NORAD_CAT_ID":27601,"ELEMENT_SET_NO":999,"REV_AT_EPOCH":21356,"BSTAR":0.00014985,"MEAN_MOTION_DOT":3.86e-6,"MEAN_MOTION_DDOT":0},{"OBJECT_NAME":"CZ-4B R/B","OBJECT_ID":"2003-049C","EPOCH":"2026-03-05T14:25:50.921184","MEAN_MOTION":14.55015808,"ECCENTRICITY":0.0047109,"INCLINATION":98.6876,"RA_OF_ASC_NODE":59.3457,"ARG_OF_PERICENTER":243.644,"MEAN_ANOMALY":115.9914,"EPHEMERIS_TYPE":0,"CLASSIFICATION_TYPE":"U","NORAD_CAT_ID":28059,"ELEMENT_SET_NO":999,"REV_AT_EPOCH":18600,"BSTAR":0.00014424,"MEAN_MOTION_DOT":5.78e-6,"MEAN_MOTION_DDOT":0},{"OBJECT_NAME":"CZ-2C R/B","OBJECT_ID":"2004-012C","EPOCH":"2026-03-05T16:57:53.787456","MEAN_MOTION":15.63957569,"ECCENTRICITY":0.001326,"INCLINATION":97.7239,"RA_OF_ASC_NODE":129.6237,"ARG_OF_PERICENTER":325.7396,"MEAN_ANOMALY":34.3005,"EPHEMERIS_TYPE":0,"CLASSIFICATION_TYPE":"U","NORAD_CAT_ID":28222,"ELEMENT_SET_NO":999,"REV_AT_EPOCH":20365,"BSTAR":0.00063753,"MEAN_MOTION_DOT":0.00060471,"MEAN_MOTION_DDOT":0},{"OBJECT_NAME":"SL-16 R/B","OBJECT_ID":"2004-021B","EPOCH":"2026-03-05T17:01:19.046208","MEAN_MOTION":14.14599191,"ECCENTRICITY":0.0003813,"INCLINATION":70.9992,"RA_OF_ASC_NODE":240.846,"ARG_OF_PERICENTER":17.1566,"MEAN_ANOMALY":342.9684,"EPHEMERIS_TYPE":0,"CLASSIFICATION_TYPE":"U","NORAD_CAT_ID":28353,"ELEMENT_SET_NO":999,"REV_AT_EPOCH":12227,"BSTAR":-7.575e-5,"MEAN_MOTION_DOT":-1.93e-6,"MEAN_MOTION_DDOT":0},{"OBJECT_NAME":"CZ-4B R/B","OBJECT_ID":"2004-035C","EPOCH":"2026-03-05T15:43:48.173088","MEAN_MOTION":15.28976588,"ECCENTRICITY":0.0031407,"INCLINATION":97.3499,"RA_OF_ASC_NODE":98.946,"ARG_OF_PERICENTER":346.2281,"MEAN_ANOMALY":13.8099,"EPHEMERIS_TYPE":0,"CLASSIFICATION_TYPE":"U","NORAD_CAT_ID":28415,"ELEMENT_SET_NO":999,"REV_AT_EPOCH":17929,"BSTAR":0.00035106,"MEAN_MOTION_DOT":9.952e-5,"MEAN_MOTION_DDOT":0},{"OBJECT_NAME":"CZ-2C R/B","OBJECT_ID":"2004-046B","EPOCH":"2026-03-05T16:46:46.512480","MEAN_MOTION":14.26990485,"ECCENTRICITY":0.0139651,"INCLINATION":98.1986,"RA_OF_ASC_NODE":339.9313,"ARG_OF_PERICENTER":166.206,"MEAN_ANOMALY":194.3,"EPHEMERIS_TYPE":0,"CLASSIFICATION_TYPE":"U","NORAD_CAT_ID":28480,"ELEMENT_SET_NO":999,"REV_AT_EPOCH":10793,"BSTAR":7.4447e-5,"MEAN_MOTION_DOT":1.6e-6,"MEAN_MOTION_DDOT":0},{"OBJECT_NAME":"ARIANE 5 R/B","OBJECT_ID":"2004-049H","EPOCH":"2026-03-05T10:56:23.359488","MEAN_MOTION":14.85257082,"ECCENTRICITY":0.0084239,"INCLINATION":98.2618,"RA_OF_ASC_NODE":232.7545,"ARG_OF_PERICENTER":5.6646,"MEAN_ANOMALY":354.55,"EPHEMERIS_TYPE":0,"CLASSIFICATION_TYPE":"U","NORAD_CAT_ID":28499,"ELEMENT_SET_NO":999,"REV_AT_EPOCH":14516,"BSTAR":0.00013087,"MEAN_MOTION_DOT":1.132e-5,"MEAN_MOTION_DDOT":0}]
